[{"OBJECT_NAME":"OBJECT DM","OBJECT_ID":"2025-009DM","EPOCH":"2026-03-09T18:02:25.223712","MEAN_MOTION":15.64307433,"ECCENTRICITY":0.00035565,"INCLINATION":97.4062,"RA_OF_ASC_NODE":158.7126,"ARG_OF_PERICENTER":233.4448,"MEAN_ANOMALY":126.6484,"EPHEMERIS_TYPE":0,"CLASSIFICATION_TYPE":"U","NORAD_CAT_ID":63002,"ELEMENT_SET_NO":999,"REV_AT_EPOCH":12182,"BSTAR":0.0018891728,"MEAN_MOTION_DOT":0.00183902,"MEAN_MOTION_DDOT":0},{"OBJECT_NAME":"IRIDIUM 82","OBJECT_ID":"1998-051A","EPOCH":"2026-03-09T17:14:32.931744","MEAN_MOTION":15.58179803,"ECCENTRICITY":0.0047439,"INCLINATION":86.3594,"RA_OF_ASC_NODE":336.9899,"ARG_OF_PERICENTER":358.1791,"MEAN_ANOMALY":1.9292,"EPHEMERIS_TYPE":0,"CLASSIFICATION_TYPE":"U","NORAD_CAT_ID":25467,"ELEMENT_SET_NO":999,"REV_AT_EPOCH":46488,"BSTAR":0.0011204022,"MEAN_MOTION_DOT":0.00089782,"MEAN_MOTION_DDOT":0}]
